#dP2022 10 14  0  0  0.00000000      97 __u+U IGS14 FIT  IAC
## 2231 432000.00000000   900.00000000 59866 0.0000000000000
+  118   C06C07C08C09C10C11C12C13C14C16C19C20C21C22C23C24C25
+        C26C27C28C29C30C32C33C34C35C36C37C38C39C40C41C42C43
+        C44C45C46E01E02E03E04E05E07E08E09E10E11E12E13E14E15
+        E18E19E21E24E25E26E27E30E31E33E34E36G01G02G03G04G05
+        G06G07G08G09G10G11G12G13G14G15G16G17G18G19G20G21G22
+        G23G24G25G26G27G28G29G30G31G32J02J03J04R01R02R03R04
+        R05R07R08R09R11R12R13R14R15R17R18R19R20R21R22R24  0
++         7  7  8  7  7  6  6  7  6  7  5  6  5  5  6  5  6
++         6  6  5  6  6  6  6  6  6  6  6  7  6  6  6  5  6
++         6  5  6  4  4  4  4  4  4  4  4  4  4  4  4  5  4
++         4  4  4  4  4  4  4  5  4  4  4  4  3  4  3  3  3
++         3  4  3  3  3  3  3  3  3  3  3  3  3  3  3  3  3
++         3  4  3  3  3  4  3  3  4  4  9  9 10  7  6  6  6
++         6  6  6  6  6  6  7  6  6  6  6  7  7  6  7  6  0
%c M  cc GPS ccc cccc cccc cccc cccc ccccc ccccc ccccc ccccc
%c cc cc ccc ccc cccc cccc cccc cccc ccccc ccccc ccccc ccccc
%f  1.2500000  1.025000000  0.00000000000  0.000000000000000
%f  0.0000000  0.000000000  0.00000000000  0.000000000000000
%i    0    0    0    0      0      0      0      0         0
%i    0    0    0    0      0      0      0      0         0
/* INFORMATION & ANALYSIS CENTER (IAC)            FINAL DATA
/* S/V CLOCKS ARE ALIGNED TO GNSS TIME                      
/* G:C1WC2W R:C1PC2P E:C1XC5X C:C2IC6I J:C1CC2S             
/* PCV:IGS14_2218 OL/AL:FES2004  NONE     YN ORB:CoN CLK:CoN
*  2022 10 14  3 30  0.00000000
PC06 -10428.880893  40754.446701   4367.008890    895.794629
PC07  -5264.391995  27820.967114 -31163.453307   -273.722617
PC08 -19302.474893  24876.664635  27934.777260    493.790125
PC09  -5519.940147  41719.510407  -5175.844269   -835.454357
PC10   2814.794881  30334.000112 -28671.222555     83.980192
PC11 -12883.558974  17509.778899 -17404.569219   -352.706273
PC12 -15210.871684  -2360.013458 -23235.538533   -482.953810
PC13  -9555.438013  25742.883529  32034.693619    106.318903
PC14 -15590.618682   7848.489874  21793.891027    569.254742
PC16 -13062.439589  39243.407455   9086.676367    129.386297
PC19   6346.183172 -14573.862651 -22922.239640   -871.428320
PC20  21091.623746  -1301.463359 -18211.516333    864.779996
PC21 -24180.953081 -13783.007973   2147.736190   -598.940198
PC22 -12726.779577 -20093.402041 -14622.657331   -852.070706
PC23   1841.437737  16920.939193 -22105.319419   -546.066691
PC24 -25895.182919   8668.997711   5667.472536   -602.372862
PC25 -15959.710426  19034.238888 -12701.312212      9.408835
PC26 -20224.658234  -4300.431562  18713.111106    -21.168831
PC27  13779.418077  12246.348530  20934.665126     35.587568
PC28   4562.215949  26056.181826   8880.124251     24.052568
PC29   7188.696255 -25231.959706   9512.351166     26.515609
PC30  15285.563637  -8636.383953  21683.450139      0.504549
PC32  24248.081568  13655.270848  -2033.797786   -760.405131
PC33  -6414.025032  14561.112346  22919.721532   -906.970834
PC34 -15110.845373   9917.697387 -21273.479915     16.235553
PC35  -4589.654642 -26463.959201  -7528.583568     40.853680
PC36  16910.864438 -18549.944316  12229.313221   -675.951795
PC37  19245.733545   5731.239365 -19372.281655   -501.276457
PC38 -25324.875767  26107.447895  21184.201143     30.934854
PC39 -13476.618047  37531.349209  14012.433045     -0.627478
PC40  -9161.491221  21837.593549 -34861.955739     -5.994886
PC41  12246.465733  20080.661739  15062.048703   -170.994638
PC42 -21789.974427    378.632945  17473.344484   -470.200633
PC43  -7764.651316  24816.688197 -10155.902126     19.458961
PC44 -14297.752709 -11924.319924 -20788.796453     80.846610
PC45  -2153.440695 -16688.648574  22269.795650     -9.536072
PC46  25787.360750  -9939.970227  -4025.714378     -6.153619
PE01   6489.530491 -16029.789173  24031.339201   -546.057009
PE02  -6251.712358  16062.205415 -24057.667184    330.606719
PE03   1324.493149  25633.818098  14724.044018   -609.530631
PE04 -15027.730207 -25344.694755   2822.148859  -1136.178553
PE05 -13474.205403  10853.854846  24012.406140   -134.744693
PE07  20196.839044   9986.207997 -19195.351727   -713.088860
PE08  15110.545377  25283.189678  -2888.463388   -615.010707
PE09 -20133.706934 -10173.682201  19166.661433   -692.466068
PE10 -12864.968623  -9601.759722 -24875.587614   -483.524627
PE11 -18630.648317   1346.137674 -22971.358459   1800.323949
PE12  -5628.819326 -18240.763523 -22622.284285   -221.038684
PE13  18224.061031   -536.639574  23323.295326    430.673411
PE14  10292.767019 -15400.030089  17577.961329     27.090972
PE15   5415.907346  18377.084127  22567.365908    714.200624
PE18 -18460.546884   7430.544737 -23805.078174   -864.088908
PE19    777.966182 -24408.014473 -16725.813466  -4272.206940
PE21  24014.126667  -8798.110119  14912.211678   -763.312423
PE24 -28878.002067  -4773.559425   4321.483424   -890.013565
PE25 -24218.286803   8614.206541 -14660.911220   -590.133662
PE26  20127.044887 -19501.447990   9552.278732  -1724.664420
PE27  29140.274143   4002.690144  -3361.805942   -414.841965
PE30  16226.221554  14707.604341 -19923.773965   -914.532046
PE31 -17047.012841 -14338.968619  19504.204241   -505.697411
PE33  10520.717671 -26333.718540  -8489.825021   -454.681394
PE34 -10335.931115  26339.072243   8657.847100     -9.355011
PE36 -20221.601848  18947.442510 -10396.693455   -445.572544
PG01  13285.837831 -22182.509606  -5523.388324    267.910228
PG02 -13181.273150  23095.290772   2612.631896   -642.437331
PG03  11099.794339 -12571.228471 -20695.649400   -364.176508
PG04   3480.958937 -21478.614142 -15161.689520   -103.918083
PG05 -21730.405002   7218.500391  13384.040464   -100.307010
PG06 -15417.116531  -3199.252174 -21338.473687    490.522402
PG07    147.426346 -20198.318692  17408.797528    298.923033
PG08  10086.257220 -13088.839778  20673.877790    -88.752897
PG09  -6433.559503 -25162.106276  -5537.773113   -283.490457
PG10  20609.856672  11523.887872  12619.087418     -7.405530
PG11 -20456.447981   7317.843813 -15249.842063    -25.640600
PG12 -12197.226732  11896.286689 -20616.387540   -291.988570
PG13 -14321.183376   4349.862045  21766.239505    405.637967
PG14 -18595.864659 -13248.147708  13671.574101    -95.256109
PG15  -8761.628093  14588.953250  19883.726525    -21.084917
PG16  25289.141670   -116.043010   8567.840093   -526.169302
PG17 -12696.363180 -21813.858446  -7721.097191    668.527129
PG18    196.261684  19315.504721  18163.816982     15.448814
PG19 -15738.723245 -13487.588024 -16990.485705    223.518330
PG20 -26417.387214    839.788992    430.744620    478.561753
PG21  17032.076076 -19333.073461   5113.046491    158.049098
PG22  16244.697388  10685.676232 -17753.475669    345.305508
PG23  10855.708131  14596.092057  19389.187998     -0.975516
PG24 -14060.311276  22256.089095   -692.780772    100.639320
PG25    994.299226  15651.943533 -21747.483510    382.153356
PG26  26416.925390   3649.505818  -2020.851448    232.367107
PG27  15646.278297   -194.947976  21299.608185    198.338735
PG28 -23750.974606 -10083.695976   6214.276577    329.270895
PG29   3355.504616  25463.559699  -6636.911093   -559.442116
PG30  -9958.370935 -12562.713599  21243.864107   -537.222032
PG31  16893.276580   2411.809194 -20608.475708   -196.710178
PG32  15551.070996  19015.361550 -10198.743949   -262.710798
PJ02 -31799.390548  16181.297699 -17846.242700     -7.185080
PJ03 -22711.478005  31601.734115 -11569.421880     -2.868950
PJ04 -27168.229211  26454.840631  24493.429870    111.815995
PR01  13790.255750  -1442.209316 -21415.368425     16.213739
PR02  -1882.847088 -15094.022498 -20419.645494    -22.978623
PR03 -15363.534894 -19050.652080  -7041.726950     65.430653
PR04 -19874.502401 -12484.364475   9991.299025    161.096064
PR05 -13578.806350    941.225619  21569.770132    101.219373
PR07  15774.371738  19048.929679   6387.192069     42.539846
PR08  19961.440521  12347.835570  -9979.019636    -67.624886
PR09 -10591.499100  13342.172579 -18996.367824     81.925610
PR11  21356.522389    126.328288 -13924.140459     24.615768
PR12  23326.125718  -9378.712925   4395.531755     22.017272
PR13  12147.814060 -13059.250508  18225.674245    -27.780432
PR14  -7872.001356  -8990.310615  22553.009202     24.206431
PR15 -21902.602883    122.380744  13099.514860     93.221111
PR17  -2167.844753 -20387.663997 -15198.738082    568.914167
PR18  -9340.945246  -5355.954751 -23103.977582     47.008024
PR19 -12091.755549  10833.359857 -19667.144050   -207.196725
PR20  -7840.709524  24189.359818  -2208.589527    -80.169020
PR21   2851.015929  19258.591745  16463.237950   -341.396712
PR22   9784.978497   5101.016655  23025.664726     14.336237
PR24   6917.149833 -24517.969529   1561.774832    120.216235
EOF
